{"type": "FeatureCollection", "features": [{"type": "Feature", "properties": {"incident_status": "REPAIR_IN_PROGRESS"}, "geometry": {"type": "Point", "coordinates": [-85.238304, 35.03663]}}, {"type": "Feature", "properties": {"incident_status": "REPAIR_IN_PROGRESS"}, "geometry": {"type": "Point", "coordinates": [-85.241071, 35.037241]}}, {"type": "Feature", "properties": {"incident_status": "OUTAGE_REPORTED"}, "geometry": {"type": "Point", "coordinates": [-85.092642, 35.037064]}}, {"type": "Feature", "properties": {"incident_status": "EN_ROUTE"}, "geometry": {"type": "Point", "coordinates": [-85.244325, 35.000067]}}, {"type": "Feature", "properties": {"incident_status": "REPAIR_IN_PROGRESS"}, "geometry": {"type": "Point", "coordinates": [-85.095031, 35.032158]}}, {"type": "Feature", "properties": {"incident_status": "EN_ROUTE"}, "geometry": {"type": "Point", "coordinates": [-85.195685, 35.15426]}}]}