{"type": "FeatureCollection", "features": [{"type": "Feature", "properties": {"incident_status": "MANUAL_RESTORE"}, "geometry": {"type": "Point", "coordinates": [-85.3094612376052, 35.2034006191272]}}, {"type": "Feature", "properties": {"incident_status": "MANUAL_RESTORE"}, "geometry": {"type": "Point", "coordinates": [-85.280444867735, 34.9616055533368]}}, {"type": "Feature", "properties": {"incident_status": "MANUAL_RESTORE"}, "geometry": {"type": "Point", "coordinates": [-85.3430224401877, 35.141286587395]}}, {"type": "Feature", "properties": {"incident_status": "MANUAL_RESTORE"}, "geometry": {"type": "Point", "coordinates": [-85.1262610995856, 35.3845168056801]}}, {"type": "Feature", "properties": {"incident_status": "MANUAL_RESTORE"}, "geometry": {"type": "Point", "coordinates": [-85.1406141367748, 35.0111310988061]}}, {"type": "Feature", "properties": {"incident_status": "MANUAL_RESTORE"}, "geometry": {"type": "Point", "coordinates": [-85.1543998557677, 35.0497877447703]}}, {"type": "Feature", "properties": {"incident_status": "MANUAL_RESTORE"}, "geometry": {"type": "Point", "coordinates": [-85.1197487682529, 35.31157531393]}}, {"type": "Feature", "properties": {"incident_status": "MANUAL_RESTORE"}, "geometry": {"type": "Point", "coordinates": [-85.2695531024364, 35.0428876823878]}}, {"type": "Feature", "properties": {"incident_status": "MANUAL_RESTORE"}, "geometry": {"type": "Point", "coordinates": [-85.2679555169806, 34.9823739718059]}}, {"type": "Feature", "properties": {"incident_status": "SMART_GRID_RESTORE"}, "geometry": {"type": "Point", "coordinates": [-85.2937824395744, 35.1052468978395]}}, {"type": "Feature", "properties": {"incident_status": "MANUAL_RESTORE"}, "geometry": {"type": "Point", "coordinates": [-85.4114525906303, 35.0361572285405]}}, {"type": "Feature", "properties": {"incident_status": "SMART_GRID_RESTORE"}, "geometry": {"type": "Point", "coordinates": [-85.3391625224234, 34.9594463416386]}}, {"type": "Feature", "properties": {"incident_status": "MANUAL_RESTORE"}, "geometry": {"type": "Point", "coordinates": [-85.1406141367748, 35.0111310988061]}}, {"type": "Feature", "properties": {"incident_status": "MANUAL_RESTORE"}, "geometry": {"type": "Point", "coordinates": [-85.2417963257372, 35.0720237918077]}}]}